{
  "type": "FeatureCollection",
  "features": [
    {
      "type": "Feature",
      "properties": {
        "norad_id": 34540,
        "name": "IRIDIUM 33 DEB",
        "group": "iridium-33-debris",
        "lat": -6.3837566088257764,
        "lon": 122.8962293148598,
        "alt_km": 641.9619754538298,
        "timestamp": "2025-12-23T22:42:33.370732+00:00",
        "meta_object_name": "IRIDIUM 33 DEB",
        "meta_object_id": "1997-051JH",
        "meta_epoch": "2025-12-22T19:58:08.744160",
        "meta_mean_motion": 14.75512106,
        "meta_eccentricity": 0.00179406,
        "meta_inclination": 86.3119,
        "meta_ra_of_asc_node": 302.992,
        "meta_arg_of_pericenter": 125.3836,
        "meta_mean_anomaly": 266.2203,
        "meta_ephemeris_type": 0,
        "meta_classification_type": "U",
        "meta_norad_cat_id": 34540,
        "meta_element_set_no": 999,
        "meta_rev_at_epoch": 89170,
        "meta_bstar": 0.0015814186,
        "meta_mean_motion_dot": 0.00010821,
        "meta_mean_motion_ddot": 0,
        "tle_line1": "1 34540U 97051JH  25356.83204565  .00010821  00000+0  15814-2 0  9994",
        "tle_line2": "2 34540  86.3119 302.9920 0017940 125.3836 266.2203 14.75512106891708"
      },
      "geometry": {
        "type": "Point",
        "coordinates": [
          122.8962293148598,
          -6.3837566088257764
        ]
      }
    },
    {
      "type": "Feature",
      "properties": {
        "norad_id": 34648,
        "name": "IRIDIUM 33 DEB",
        "group": "iridium-33-debris",
        "lat": -75.15552711585613,
        "lon": -96.35568693444681,
        "alt_km": 738.7783936381875,
        "timestamp": "2025-12-23T22:42:33.370742+00:00",
        "meta_object_name": "IRIDIUM 33 DEB",
        "meta_object_id": "1997-051JZ",
        "meta_epoch": "2025-12-21T18:19:39.887904",
        "meta_mean_motion": 14.11736102,
        "meta_eccentricity": 0.01798232,
        "meta_inclination": 86.3908,
        "meta_ra_of_asc_node": 278.3021,
        "meta_arg_of_pericenter": 270.6006,
        "meta_mean_anomaly": 87.4576,
        "meta_ephemeris_type": 0,
        "meta_classification_type": "U",
        "meta_norad_cat_id": 34648,
        "meta_element_set_no": 999,
        "meta_rev_at_epoch": 85088,
        "meta_bstar": 0.0054657739,
        "meta_mean_motion_dot": 0.00011615,
        "meta_mean_motion_ddot": 0,
        "tle_line1": "1 34648U 97051JZ  25355.76365611  .00011615  00000+0  54658-2 0  9995",
        "tle_line2": "2 34648  86.3908 278.3021 0179823 270.6006  87.4576 14.11736102850887"
      },
      "geometry": {
        "type": "Point",
        "coordinates": [
          -96.35568693444681,
          -75.15552711585613
        ]
      }
    },
    {
      "type": "Feature",
      "properties": {
        "norad_id": 34651,
        "name": "IRIDIUM 33 DEB",
        "group": "iridium-33-debris",
        "lat": -16.199608884544656,
        "lon": -43.10828091936367,
        "alt_km": 719.4387835091838,
        "timestamp": "2025-12-23T22:42:33.370753+00:00",
        "meta_object_name": "IRIDIUM 33 DEB",
        "meta_object_id": "1997-051KC",
        "meta_epoch": "2025-12-19T16:44:48.420096",
        "meta_mean_motion": 14.25922062,
        "meta_eccentricity": 0.01422464,
        "meta_inclination": 86.2827,
        "meta_ra_of_asc_node": 137.6175,
        "meta_arg_of_pericenter": 181.9677,
        "meta_mean_anomaly": 178.0974,
        "meta_ephemeris_type": 0,
        "meta_classification_type": "U",
        "meta_norad_cat_id": 34651,
        "meta_element_set_no": 999,
        "meta_rev_at_epoch": 85995,
        "meta_bstar": 0.0022061693,
        "meta_mean_motion_dot": 5.865e-05,
        "meta_mean_motion_ddot": 0,
        "tle_line1": "1 34651U 97051KC  25353.69778264  .00005865  00000+0  22062-2 0  9995",
        "tle_line2": "2 34651  86.2827 137.6175 0142246 181.9677 178.0974 14.25922062859957"
      },
      "geometry": {
        "type": "Point",
        "coordinates": [
          -43.10828091936367,
          -16.199608884544656
        ]
      }
    },
    {
      "type": "Feature",
      "properties": {
        "norad_id": 34652,
        "name": "IRIDIUM 33 DEB",
        "group": "iridium-33-debris",
        "lat": -83.78557300441018,
        "lon": -168.88992303012213,
        "alt_km": 675.8533363077586,
        "timestamp": "2025-12-23T22:42:33.370763+00:00",
        "meta_object_name": "IRIDIUM 33 DEB",
        "meta_object_id": "1997-051KD",
        "meta_epoch": "2025-12-22T22:37:56.807904",
        "meta_mean_motion": 14.62145244,
        "meta_eccentricity": 0.002545,
        "meta_inclination": 86.3316,
        "meta_ra_of_asc_node": 335.4576,
        "meta_arg_of_pericenter": 260.7991,
        "meta_mean_anomaly": 126.9649,
        "meta_ephemeris_type": 0,
        "meta_classification_type": "U",
        "meta_norad_cat_id": 34652,
        "meta_element_set_no": 999,
        "meta_rev_at_epoch": 88633,
        "meta_bstar": 0.00098275,
        "meta_mean_motion_dot": 4.986e-05,
        "meta_mean_motion_ddot": 0,
        "tle_line1": "1 34652U 97051KD  25356.94301861  .00004986  00000+0  98275-3 0  9995",
        "tle_line2": "2 34652  86.3316 335.4576 0025450 260.7991 126.9649 14.62145244886330"
      },
      "geometry": {
        "type": "Point",
        "coordinates": [
          -168.88992303012213,
          -83.78557300441018
        ]
      }
    },
    {
      "type": "Feature",
      "properties": {
        "norad_id": 34690,
        "name": "IRIDIUM 33 DEB",
        "group": "iridium-33-debris",
        "lat": -26.090594353083844,
        "lon": -146.10199055989958,
        "alt_km": 720.3618823782181,
        "timestamp": "2025-12-23T22:42:33.370792+00:00",
        "meta_object_name": "IRIDIUM 33 DEB",
        "meta_object_id": "1997-051KM",
        "meta_epoch": "2025-12-23T02:05:55.177152",
        "meta_mean_motion": 14.55131538,
        "meta_eccentricity": 0.00096335,
        "meta_inclination": 86.3772,
        "meta_ra_of_asc_node": 32.4934,
        "meta_arg_of_pericenter": 354.9815,
        "meta_mean_anomaly": 35.335,
        "meta_ephemeris_type": 0,
        "meta_classification_type": "U",
        "meta_norad_cat_id": 34690,
        "meta_element_set_no": 999,
        "meta_rev_at_epoch": 88245,
        "meta_bstar": 0.00039542617,
        "meta_mean_motion_dot": 1.728e-05,
        "meta_mean_motion_ddot": 0,
        "tle_line1": "1 34690U 97051KM  25357.08744418  .00001728  00000+0  39543-3 0  9996",
        "tle_line2": "2 34690  86.3772  32.4934 0009633 354.9815  35.3350 14.55131538882450"
      },
      "geometry": {
        "type": "Point",
        "coordinates": [
          -146.10199055989958,
          -26.090594353083844
        ]
      }
    },
    {
      "type": "Feature",
      "properties": {
        "norad_id": 34693,
        "name": "IRIDIUM 33 DEB",
        "group": "iridium-33-debris",
        "lat": 0.7501915455580535,
        "lon": -61.70467827563845,
        "alt_km": 470.70700892871173,
        "timestamp": "2025-12-23T22:42:33.370803+00:00",
        "meta_object_name": "IRIDIUM 33 DEB",
        "meta_object_id": "1997-051KQ",
        "meta_epoch": "2025-12-23T02:21:36.766080",
        "meta_mean_motion": 15.30387063,
        "meta_eccentricity": 0.00106491,
        "meta_inclination": 86.3056,
        "meta_ra_of_asc_node": 298.6696,
        "meta_arg_of_pericenter": 34.5294,
        "meta_mean_anomaly": 337.965,
        "meta_ephemeris_type": 0,
        "meta_classification_type": "U",
        "meta_norad_cat_id": 34693,
        "meta_element_set_no": 999,
        "meta_rev_at_epoch": 89073,
        "meta_bstar": 0.0048464454,
        "meta_mean_motion_dot": 0.001451,
        "meta_mean_motion_ddot": 0,
        "tle_line1": "1 34693U 97051KQ  25357.09834220  .00145100  00000+0  48464-2 0  9995",
        "tle_line2": "2 34693  86.3056 298.6696 0010649  34.5294 337.9650 15.30387063890734"
      },
      "geometry": {
        "type": "Point",
        "coordinates": [
          -61.70467827563845,
          0.7501915455580535
        ]
      }
    },
    {
      "type": "Feature",
      "properties": {
        "norad_id": 34696,
        "name": "IRIDIUM 33 DEB",
        "group": "iridium-33-debris",
        "lat": 36.38488891388731,
        "lon": 25.12576971565949,
        "alt_km": 675.1609036915224,
        "timestamp": "2025-12-23T22:42:33.370813+00:00",
        "meta_object_name": "IRIDIUM 33 DEB",
        "meta_object_id": "1997-051KT",
        "meta_epoch": "2025-12-23T01:22:31.057824",
        "meta_mean_motion": 14.65554291,
        "meta_eccentricity": 0.00740191,
        "meta_inclination": 86.1834,
        "meta_ra_of_asc_node": 22.7202,
        "meta_arg_of_pericenter": 132.72,
        "meta_mean_anomaly": 257.7556,
        "meta_ephemeris_type": 0,
        "meta_classification_type": "U",
        "meta_norad_cat_id": 34696,
        "meta_element_set_no": 999,
        "meta_rev_at_epoch": 86824,
        "meta_bstar": 0.0043722912,
        "meta_mean_motion_dot": 0.00024778,
        "meta_mean_motion_ddot": 0,
        "tle_line1": "1 34696U 97051KT  25357.05730391  .00024778  00000+0  43723-2 0  9998",
        "tle_line2": "2 34696  86.1834  22.7202 0074019 132.7200 257.7556 14.65554291868248"
      },
      "geometry": {
        "type": "Point",
        "coordinates": [
          25.12576971565949,
          36.38488891388731
        ]
      }
    }
  ]
}